KUIPER-00252            
1 67157U 25301AA  26002.93663502  .00031375  00000+0  92845-3 0  9990
2 67157  51.8656  23.0606 0009914 170.6079 189.5094 15.34579964  3629
KUIPER-00261            
1 67158U 25301AB  26002.92311261  .00036872  00000+0  10490-2 0  9994
2 67158  51.8701  22.9772 0006301 143.5721 216.5695 15.35764308  3620
KUIPER-00265            
1 67159U 25301AC  26002.91169630 -.00012769  00000+0 -34254-3 0  9991
2 67159  51.8742  22.9019 0002170 121.3342 238.7857 15.36530345  3655
GALILEO 33              
1 67160U 25302A   25352.14605887 -.00000007  00000+0  00000+0 0  9994
2 67160  54.2406 107.2544 0008423 237.6458 122.2317  1.72906186    28
GALILEO B               
1 67161U 25302B   25365.44232658 -.00000018  00000+0  00000+0 0  9996
2 67161  54.2329 106.8331 0006490 266.0500  93.8527  1.72971438   262
GALILEO 33 (139)        
1 67162U 25302C   25356.18244914  .00000006  00000+0  00000+0 0  9992
2 67162  54.2447 107.1379 0000312 196.8367 159.4994  1.73130437   127
STARLINK-35755          
1 67163U 25303A   25351.60835648 -.00002699  85337-5  00000+0 0  9999
2 67163  43.0100  69.0834 0011500 323.6500   9.4800 16.01284782    10
STARLINK-36201          
1 67164U 25303B   25351.60835648 -.00002699  85337-5  00000+0 0  9990
2 67164  43.0100  69.0834 0011500 323.6500   9.4800 16.01284782    11
STARLINK-36186          
1 67165U 25303C   25351.60835648 -.00002699  85337-5  00000+0 0  9991
2 67165  43.0100  69.0834 0011500 323.6500   9.4800 16.01284782    12
STARLINK-36174          
1 67166U 25303D   25351.60835648 -.00002699  85337-5  00000+0 0  9992
2 67166  43.0100  69.0834 0011500 323.6500   9.4800 16.01284782    13
STARLINK-36198          
1 67167U 25303E   25351.60835648 -.00002699  85337-5  00000+0 0  9993
2 67167  43.0100  69.0834 0011500 323.6500   9.4800 16.01284782    14
STARLINK-35903          
1 67168U 25303F   25351.60835648 -.00002699  85337-5  00000+0 0  9994
2 67168  43.0100  69.0834 0011500 323.6500   9.4800 16.01284782    15
